{"fetched_at":"2026-03-29T02:12:04Z","count":15717,"tles":[{"name":"TIANHUI 5A","line1":"1 58199U 23168A   26086.48463351  .00000455  00000+0  56010-4 0  9997","line2":"2 58199  97.8212  95.0218 0001564  89.0421 271.0975 14.87579490130456","category":"Other"}]}