{
  "norad_id": 58199,
  "name": "TIANHUI 5A",
  "history": [
    {
      "epoch": "2026-03-27T11:37:52.335264Z",
      "apogee_km": 606.5932510877483,
      "perigee_km": 604.4087691181876,
      "latitude_deg": 5.750548968179605e-05,
      "longitude_deg": 95.63496204892013,
      "height_km": 608.5144038114246,
      "semi_major_axis_km": 6983.638010102967,
      "eccentricity": 0.0001564,
      "inclination_deg": 97.8212,
      "raan_deg": 95.0218,
      "arg_perigee_deg": 89.0421,
      "mean_anomaly_deg": 271.0975,
      "mean_motion_rev_day": 14.8757949
    }
  ]
}